start=new Date('2022-02-07T00:00:00.000Z').valueOf();
sats=[{"ELEMENT_SET_NO":"999","MEAN_ANOMALY":"278.8768","PERIAPSIS":"546.214","TIME_SYSTEM":"UTC","CLASSIFICATION_TYPE":"U","GP_ID":"195444024","REF_FRAME":"TEME","SEMIMAJOR_AXIS":"6925.369","NORAD_CAT_ID":"47862","MEAN_MOTION":"15.06393193","LAUNCH_DATE":"2021-03-14","BSTAR":"-0.00010128000000","INCLINATION":"53.0564","DECAY_DATE":null,"OBJECT_ID":"2021-021C","CENTER_NAME":"EARTH","MEAN_ELEMENT_THEORY":"SGP4","TLE_LINE1":"1 47862U 21021C   22037.57266567 -.00001789  00000-0 -10128-3 0  9993","COUNTRY_CODE":"US","REV_AT_EPOCH":"5143","MEAN_MOTION_DDOT":"0.0000000000000","PERIOD":"95.593","ARG_OF_PERICENTER":"81.2388","OBJECT_TYPE":"PAYLOAD","EPOCH":"2022-02-06T13:44:38.313888","TLE_LINE2":"2 47862  53.0564 120.0038 0001473  81.2388 278.8768 15.06393193 51430","EPHEMERIS_TYPE":"0","APOAPSIS":"548.255","RA_OF_ASC_NODE":"120.0038","RCS_SIZE":"LARGE","SITE":"AFETR","OBJECT_NAME":"STARLINK-2291","MEAN_MOTION_DOT":"-0.00001789","FILE":"3293822","ECCENTRICITY":"0.00014730"},{"CENTER_NAME":"EARTH","MEAN_ELEMENT_THEORY":"SGP4","OBJECT_ID":"2021-021D","DECAY_DATE":null,"MEAN_MOTION":"15.06385777","LAUNCH_DATE":"2021-03-14","INCLINATION":"53.0559","BSTAR":"-0.00025349000000","SEMIMAJOR_AXIS":"6925.392","NORAD_CAT_ID":"47863","CLASSIFICATION_TYPE":"U","REF_FRAME":"TEME","GP_ID":"195442772","MEAN_ANOMALY":"283.3723","ELEMENT_SET_NO":"999","PERIAPSIS":"546.235","TIME_SYSTEM":"UTC","ECCENTRICITY":"0.00014760","RCS_SIZE":"LARGE","RA_OF_ASC_NODE":"129.8850","FILE":"3293822","MEAN_MOTION_DOT":"-0.00004054","SITE":"AFETR","OBJECT_NAME":"STARLINK-2293","OBJECT_TYPE":"PAYLOAD","APOAPSIS":"548.279","EPOCH":"2022-02-06T14:20:29.133024","TLE_LINE2":"2 47863  53.0559 129.8850 0001476  76.7431 283.3723 15.06385777 51302","EPHEMERIS_TYPE":"0","REV_AT_EPOCH":"5130","MEAN_MOTION_DDOT":"0.0000000000000","COUNTRY_CODE":"US","TLE_LINE1":"1 47863U 21021D   22037.59755941 -.00004054  00000-0 -25349-3 0  9994","PERIOD":"95.593","ARG_OF_PERICENTER":"76.7431"},{"SITE":"AFETR","OBJECT_NAME":"STARLINK-2304","MEAN_MOTION_DOT":"-0.00003527","FILE":"3293822","RA_OF_ASC_NODE":"119.4140","RCS_SIZE":"LARGE","ECCENTRICITY":"0.00014580","PERIOD":"95.593","ARG_OF_PERICENTER":"73.9581","COUNTRY_CODE":"US","TLE_LINE1":"1 47864U 21021E   22037.70442321 -.00003527  00000-0 -21812-3 0  9998","REV_AT_EPOCH":"5143","MEAN_MOTION_DDOT":"0.0000000000000","TLE_LINE2":"2 47864  53.0564 119.4140 0001458  73.9581 286.1568 15.06383070 51437","EPOCH":"2022-02-06T16:54:22.165344","EPHEMERIS_TYPE":"0","APOAPSIS":"548.275","OBJECT_TYPE":"PAYLOAD","MEAN_MOTION":"15.06383070","LAUNCH_DATE":"2021-03-14","BSTAR":"-0.00021812000000","INCLINATION":"53.0564","DECAY_DATE":null,"MEAN_ELEMENT_THEORY":"SGP4","CENTER_NAME":"EARTH","OBJECT_ID":"2021-021E","TIME_SYSTEM":"UTC","PERIAPSIS":"546.256","ELEMENT_SET_NO":"999","MEAN_ANOMALY":"286.1568","CLASSIFICATION_TYPE":"U","GP_ID":"195443022","REF_FRAME":"TEME","SEMIMAJOR_AXIS":"6925.400","NORAD_CAT_ID":"47864"},{"OBJECT_TYPE":"PAYLOAD","EPHEMERIS_TYPE":"0","EPOCH":"2022-02-06T13:43:18.949440","TLE_LINE2":"2 47865  53.0535 129.9834 0001578  76.7206 283.3959 15.06391816 51407","APOAPSIS":"548.331","TLE_LINE1":"1 47865U 21021F   22037.57174710  .00003449  00000-0  25036-3 0  9991","COUNTRY_CODE":"US","MEAN_MOTION_DDOT":"0.0000000000000","REV_AT_EPOCH":"5140","ARG_OF_PERICENTER":"76.7206","PERIOD":"95.593","ECCENTRICITY":"0.00015780","RA_OF_ASC_NODE":"129.9834","RCS_SIZE":"LARGE","SITE":"AFETR","MEAN_MOTION_DOT":"0.00003449","OBJECT_NAME":"STARLINK-2310","FILE":"3293555","REF_FRAME":"TEME","GP_ID":"195412156","CLASSIFICATION_TYPE":"U","NORAD_CAT_ID":"47865","SEMIMAJOR_AXIS":"6925.374","ELEMENT_SET_NO":"999","MEAN_ANOMALY":"283.3959","TIME_SYSTEM":"UTC","PERIAPSIS":"546.146","OBJECT_ID":"2021-021F","CENTER_NAME":"EARTH","MEAN_ELEMENT_THEORY":"SGP4","LAUNCH_DATE":"2021-03-14","BSTAR":"0.00025036000000","INCLINATION":"53.0535","MEAN_MOTION":"15.06391816","DECAY_DATE":null},{"MEAN_MOTION_DOT":"-0.00004425","SITE":"AFETR","OBJECT_NAME":"STARLINK-2320","FILE":"3293822","RA_OF_ASC_NODE":"129.6850","RCS_SIZE":"LARGE","ECCENTRICITY":"0.00014800","ARG_OF_PERICENTER":"68.6484","PERIOD":"95.594","TLE_LINE1":"1 47866U 21021G   22037.64178879 -.00004425  00000-0 -27858-3 0  9991","COUNTRY_CODE":"US","REV_AT_EPOCH":"5146","MEAN_MOTION_DDOT":"0.0000000000000","EPOCH":"2022-02-06T15:24:10.551456","TLE_LINE2":"2 47866  53.0544 129.6850 0001480  68.6484 291.4663 15.06369877 51463","EPHEMERIS_TYPE":"0","APOAPSIS":"548.331","OBJECT_TYPE":"PAYLOAD","MEAN_MOTION":"15.06369877","INCLINATION":"53.0544","LAUNCH_DATE":"2021-03-14","BSTAR":"-0.00027858000000","DECAY_DATE":null,"MEAN_ELEMENT_THEORY":"SGP4","CENTER_NAME":"EARTH","OBJECT_ID":"2021-021G","PERIAPSIS":"546.281","TIME_SYSTEM":"UTC","ELEMENT_SET_NO":"999","MEAN_ANOMALY":"291.4663","CLASSIFICATION_TYPE":"U","GP_ID":"195443525","REF_FRAME":"TEME","SEMIMAJOR_AXIS":"6925.441","NORAD_CAT_ID":"47866"},{"REV_AT_EPOCH":"5141","MEAN_MOTION_DDOT":"0.0000000000000","TLE_LINE1":"1 47867U 21021H   22037.70168139 -.00003857  00000-0 -24036-3 0  9990","COUNTRY_CODE":"US","ARG_OF_PERICENTER":"75.5569","PERIOD":"95.594","OBJECT_TYPE":"PAYLOAD","APOAPSIS":"548.267","EPOCH":"2022-02-06T16:50:25.272096","TLE_LINE2":"2 47867  53.0540 119.4045 0001419  75.5569 284.5578 15.06376973 51414","EPHEMERIS_TYPE":"0","RCS_SIZE":"LARGE","RA_OF_ASC_NODE":"119.4045","FILE":"3293822","SITE":"AFETR","OBJECT_NAME":"STARLINK-2321","MEAN_MOTION_DOT":"-0.00003857","ECCENTRICITY":"0.00014190","MEAN_ANOMALY":"284.5578","ELEMENT_SET_NO":"999","PERIAPSIS":"546.301","TIME_SYSTEM":"UTC","SEMIMAJOR_AXIS":"6925.419","NORAD_CAT_ID":"47867","CLASSIFICATION_TYPE":"U","GP_ID":"195442273","REF_FRAME":"TEME","DECAY_DATE":null,"MEAN_MOTION":"15.06376973","BSTAR":"-0.00024036000000","LAUNCH_DATE":"2021-03-14","INCLINATION":"53.0540","OBJECT_ID":"2021-021H","CENTER_NAME":"EARTH","MEAN_ELEMENT_THEORY":"SGP4"},{"CENTER_NAME":"EARTH","MEAN_ELEMENT_THEORY":"SGP4","OBJECT_ID":"2021-021J","DECAY_DATE":null,"MEAN_MOTION":"15.06399922","BSTAR":"0.00011167000000","LAUNCH_DATE":"2021-03-14","INCLINATION":"53.0551","SEMIMAJOR_AXIS":"6925.349","NORAD_CAT_ID":"47868","CLASSIFICATION_TYPE":"U","GP_ID":"195411906","REF_FRAME":"TEME","MEAN_ANOMALY":"287.7104","ELEMENT_SET_NO":"999","PERIAPSIS":"546.416","TIME_SYSTEM":"UTC","ECCENTRICITY":"0.00011520","RCS_SIZE":"LARGE","RA_OF_ASC_NODE":"70.3226","FILE":"3293555","OBJECT_NAME":"STARLINK-2323","SITE":"AFETR","MEAN_MOTION_DOT":"0.00001382","OBJECT_TYPE":"PAYLOAD","APOAPSIS":"548.012","TLE_LINE2":"2 47868  53.0551  70.3226 0001152  72.4011 287.7104 15.06399922 52134","EPOCH":"2022-02-06T11:54:31.203936","EPHEMERIS_TYPE":"0","REV_AT_EPOCH":"5213","MEAN_MOTION_DDOT":"0.0000000000000","COUNTRY_CODE":"US","TLE_LINE1":"1 47868U 21021J   22037.49619449  .00001382  00000-0  11167-3 0  9992","ARG_OF_PERICENTER":"72.4011","PERIOD":"95.592"},{"MEAN_MOTION":"15.06383176","INCLINATION":"53.0541","LAUNCH_DATE":"2021-03-14","BSTAR":"-0.00027184000000","DECAY_DATE":null,"OBJECT_ID":"2021-021K","MEAN_ELEMENT_THEORY":"SGP4","CENTER_NAME":"EARTH","TIME_SYSTEM":"UTC","PERIAPSIS":"546.196","ELEMENT_SET_NO":"999","MEAN_ANOMALY":"298.7820","CLASSIFICATION_TYPE":"U","GP_ID":"195443275","REF_FRAME":"TEME","SEMIMAJOR_AXIS":"6925.400","NORAD_CAT_ID":"47869","SITE":"AFETR","OBJECT_NAME":"STARLINK-2324","MEAN_MOTION_DOT":"-0.00004326","FILE":"3293822","RA_OF_ASC_NODE":"119.4442","RCS_SIZE":"LARGE","ECCENTRICITY":"0.00015440","PERIOD":"95.593","ARG_OF_PERICENTER":"61.3324","TLE_LINE1":"1 47869U 21021K   22037.69799916 -.00004326  00000-0 -27184-3 0  9992","COUNTRY_CODE":"US","REV_AT_EPOCH":"5156","MEAN_MOTION_DDOT":"0.0000000000000","TLE_LINE2":"2 47869  53.0541 119.4442 0001544  61.3324 298.7820 15.06383176 51565","EPOCH":"2022-02-06T16:45:07.127424","EPHEMERIS_TYPE":"0","APOAPSIS":"548.334","OBJECT_TYPE":"PAYLOAD"},{"OBJECT_NAME":"STARLINK-2326","SITE":"AFETR","MEAN_MOTION_DOT":"-0.00003632","FILE":"3293822","RA_OF_ASC_NODE":"144.0565","RCS_SIZE":"MEDIUM","ECCENTRICITY":"0.00015220","ARG_OF_PERICENTER":"58.5886","PERIOD":"95.593","COUNTRY_CODE":"US","TLE_LINE1":"1 47870U 21021L   22037.78230825 -.00003632  00000-0 -22518-3 0  9998","MEAN_MOTION_DDOT":"0.0000000000000","REV_AT_EPOCH":"5101","EPHEMERIS_TYPE":"0","TLE_LINE2":"2 47870  53.0492 144.0565 0001522  58.5886 301.5252 15.06383285 51012","EPOCH":"2022-02-06T18:46:31.432800","APOAPSIS":"548.319","OBJECT_TYPE":"PAYLOAD","BSTAR":"-0.00022518000000","LAUNCH_DATE":"2021-03-14","INCLINATION":"53.0492","MEAN_MOTION":"15.06383285","DECAY_DATE":null,"MEAN_ELEMENT_THEORY":"SGP4","OBJECT_ID":"2021-021L","CENTER_NAME":"EARTH","PERIAPSIS":"546.211","TIME_SYSTEM":"UTC","ELEMENT_SET_NO":"999","MEAN_ANOMALY":"301.5252","REF_FRAME":"TEME","GP_ID":"195444025","CLASSIFICATION_TYPE":"U","NORAD_CAT_ID":"47870","SEMIMAJOR_AXIS":"6925.400"},{"APOAPSIS":"548.169","EPHEMERIS_TYPE":"0","TLE_LINE2":"2 47871  53.0531 119.4594 0001278  75.9141 284.1989 15.06377181 51459","EPOCH":"2022-02-06T16:39:48.066912","OBJECT_TYPE":"PAYLOAD","ARG_OF_PERICENTER":"75.9141","PERIOD":"95.594","MEAN_MOTION_DDOT":"0.0000000000000","REV_AT_EPOCH":"5145","COUNTRY_CODE":"US","TLE_LINE1":"1 47871U 21021M   22037.69430633 -.00006646  00000-0 -42796-3 0  9996","ECCENTRICITY":"0.00012780","FILE":"3293822","OBJECT_NAME":"STARLINK-2327","SITE":"AFETR","MEAN_MOTION_DOT":"-0.00006646","RCS_SIZE":"LARGE","RA_OF_ASC_NODE":"119.4594","NORAD_CAT_ID":"47871","SEMIMAJOR_AXIS":"6925.418","REF_FRAME":"TEME","GP_ID":"195442773","CLASSIFICATION_TYPE":"U","TIME_SYSTEM":"UTC","PERIAPSIS":"546.398","MEAN_ANOMALY":"284.1989","ELEMENT_SET_NO":"999","OBJECT_ID":"2021-021M","MEAN_ELEMENT_THEORY":"SGP4","CENTER_NAME":"EARTH","DECAY_DATE":null,"BSTAR":"-0.00042796000000","LAUNCH_DATE":"2021-03-14","INCLINATION":"53.0531","MEAN_MOTION":"15.06377181"}];
